{
  "norad_id": 49817,
  "name": "STPSAT-6",
  "history": [
    {
      "epoch": "2026-03-28T21:05:44.290176Z",
      "apogee_km": 35796.69114676249,
      "perigee_km": 35776.40065805619,
      "latitude_deg": -0.10283342208101756,
      "longitude_deg": -111.83964993974936,
      "height_km": 35781.44904302666,
      "semi_major_axis_km": 42164.68290240934,
      "eccentricity": 0.00024061,
      "inclination_deg": 0.1156,
      "raan_deg": 84.5935,
      "arg_perigee_deg": 242.9688,
      "mean_anomaly_deg": 63.2777,
      "mean_motion_rev_day": 1.0027196
    },
    {
      "epoch": "2026-03-29T03:18:38.644992Z",
      "apogee_km": 35796.61683323142,
      "perigee_km": 35776.44525603887,
      "latitude_deg": 0.05220525722432005,
      "longitude_deg": -111.85320853248773,
      "height_km": 35795.25047208472,
      "semi_major_axis_km": 42164.668044635146,
      "eccentricity": 0.0002392,
      "inclination_deg": 0.1163,
      "raan_deg": 84.5907,
      "arg_perigee_deg": 243.448,
      "mean_anomaly_deg": 156.2832,
      "mean_motion_rev_day": 1.00272013
    },
    {
      "epoch": "2026-03-29T05:39:22.226688Z",
      "apogee_km": 35796.587615062606,
      "perigee_km": 35776.46157878916,
      "latitude_deg": 0.1006381526769046,
      "longitude_deg": -111.86965393429362,
      "height_km": 35795.889721657826,
      "semi_major_axis_km": 42164.661596925886,
      "eccentricity": 0.00023866,
      "inclination_deg": 0.1166,
      "raan_deg": 84.5811,
      "arg_perigee_deg": 243.5643,
      "mean_anomaly_deg": 191.4545,
      "mean_motion_rev_day": 1.00272036
    },
    {
      "epoch": "2026-03-30T21:00:47.093184Z",
      "apogee_km": 35796.421727892135,
      "perigee_km": 35776.546168869485,
      "latitude_deg": -0.1047717643875631,
      "longitude_deg": -111.84284434265945,
      "height_km": 35781.20632083453,
      "semi_major_axis_km": 42164.62094838081,
      "eccentricity": 0.00023569,
      "inclination_deg": 0.121,
      "raan_deg": 84.4887,
      "arg_perigee_deg": 245.5542,
      "mean_anomaly_deg": 61.5275,
      "mean_motion_rev_day": 1.00272181
    },
    {
      "epoch": "2026-03-30T23:31:38.764128Z",
      "apogee_km": 35796.38969742073,
      "perigee_km": 35776.56642529578,
      "latitude_deg": -0.05478814054826873,
      "longitude_deg": -111.84014461100061,
      "height_km": 35787.48656410779,
      "semi_major_axis_km": 42164.61506135826,
      "eccentricity": 0.00023507,
      "inclination_deg": 0.1212,
      "raan_deg": 84.4836,
      "arg_perigee_deg": 245.9185,
      "mean_anomaly_deg": 98.9869,
      "mean_motion_rev_day": 1.00272202
    },
    {
      "epoch": "2026-04-01T15:48:05.952672Z",
      "apogee_km": 35796.1799427205,
      "perigee_km": 35776.70833914961,
      "latitude_deg": -0.06897253589792009,
      "longitude_deg": -111.87751493648666,
      "height_km": 35776.63749553162,
      "semi_major_axis_km": 42164.58114093506,
      "eccentricity": 0.0002309,
      "inclination_deg": 0.1254,
      "raan_deg": 84.3928,
      "arg_perigee_deg": 247.8352,
      "mean_anomaly_deg": 342.9305,
      "mean_motion_rev_day": 1.00272323
    },
    {
      "epoch": "2026-04-02T15:21:07.481952Z",
      "apogee_km": 35796.02318704978,
      "perigee_km": 35776.78772278185,
      "latitude_deg": -0.060704993156714245,
      "longitude_deg": -111.88146494214207,
      "height_km": 35777.13830974587,
      "semi_major_axis_km": 42164.54245491582,
      "eccentricity": 0.0002281,
      "inclination_deg": 0.1277,
      "raan_deg": 84.3476,
      "arg_perigee_deg": 249.2033,
      "mean_anomaly_deg": 335.8331,
      "mean_motion_rev_day": 1.00272461
    },
    {
      "epoch": "2026-04-02T15:21:07.482816Z",
      "apogee_km": 35796.02150046809,
      "perigee_km": 35776.78940936355,
      "latitude_deg": -0.06070499638177724,
      "longitude_deg": -111.88146665283863,
      "height_km": 35777.139846816346,
      "semi_major_axis_km": 42164.54245491582,
      "eccentricity": 0.00022806,
      "inclination_deg": 0.1277,
      "raan_deg": 84.3476,
      "arg_perigee_deg": 249.2033,
      "mean_anomaly_deg": 335.8331,
      "mean_motion_rev_day": 1.00272461
    },
    {
      "epoch": "2026-04-03T15:43:05.614176Z",
      "apogee_km": 35795.79413862727,
      "perigee_km": 35776.98032791439,
      "latitude_deg": -0.07357813224415657,
      "longitude_deg": -111.88021782465721,
      "height_km": 35777.05178479181,
      "semi_major_axis_km": 42164.52423327084,
      "eccentricity": 0.0002231,
      "inclination_deg": 0.13,
      "raan_deg": 84.3234,
      "arg_perigee_deg": 251.5248,
      "mean_anomaly_deg": 340.0307,
      "mean_motion_rev_day": 1.00272526
    },
    {
      "epoch": "2026-04-04T05:24:36.864288Z",
      "apogee_km": 35795.63889304553,
      "perigee_km": 35777.08735628068,
      "latitude_deg": 0.10652303064589305,
      "longitude_deg": -111.87346855093934,
      "height_km": 35795.09457812809,
      "semi_major_axis_km": 42164.50012466311,
      "eccentricity": 0.00021999,
      "inclination_deg": 0.1313,
      "raan_deg": 84.3227,
      "arg_perigee_deg": 252.5378,
      "mean_anomaly_deg": 184.9622,
      "mean_motion_rev_day": 1.00272612
    },
    {
      "epoch": "2026-04-05T12:12:50.533344Z",
      "apogee_km": 35795.61689161975,
      "perigee_km": 35777.169909569486,
      "latitude_deg": 0.017995540589325277,
      "longitude_deg": -111.89494637047547,
      "height_km": 35783.210181439805,
      "semi_major_axis_km": 42164.530400594624,
      "eccentricity": 0.00021875,
      "inclination_deg": 0.134,
      "raan_deg": 84.298,
      "arg_perigee_deg": 253.7531,
      "mean_anomaly_deg": 287.0962,
      "mean_motion_rev_day": 1.00272504
    },
    {
      "epoch": "2026-04-05T15:38:10.433760Z",
      "apogee_km": 35795.60354654535,
      "perigee_km": 35777.17764798535,
      "latitude_deg": -0.08118590814336123,
      "longitude_deg": -111.88007083740064,
      "height_km": 35777.329095756075,
      "semi_major_axis_km": 42164.527597265354,
      "eccentricity": 0.0002185,
      "inclination_deg": 0.1343,
      "raan_deg": 84.317,
      "arg_perigee_deg": 253.8136,
      "mean_anomaly_deg": 338.4906,
      "mean_motion_rev_day": 1.00272514
    },
    {
      "epoch": "2026-04-06T03:36:58.760640Z",
      "apogee_km": 35795.502802866475,
      "perigee_km": 35777.25484370847,
      "latitude_deg": 0.08334064815293017,
      "longitude_deg": -111.86102430372073,
      "height_km": 35794.32981694533,
      "semi_major_axis_km": 42164.515823287475,
      "eccentricity": 0.00021639,
      "inclination_deg": 0.1354,
      "raan_deg": 84.3303,
      "arg_perigee_deg": 254.1442,
      "mean_anomaly_deg": 158.3412,
      "mean_motion_rev_day": 1.00272556
    },
    {
      "epoch": "2026-04-07T13:50:30.946848Z",
      "apogee_km": 35795.38141554077,
      "perigee_km": 35777.33922713696,
      "latitude_deg": -0.04234536026608359,
      "longitude_deg": -111.88553272125388,
      "height_km": 35779.82254852511,
      "semi_major_axis_km": 42164.497321338866,
      "eccentricity": 0.00021395,
      "inclination_deg": 0.1384,
      "raan_deg": 84.3719,
      "arg_perigee_deg": 255.0505,
      "mean_anomaly_deg": 312.187,
      "mean_motion_rev_day": 1.00272622
    },
    {
      "epoch": "2026-04-07T15:33:13.596192Z",
      "apogee_km": 35795.363282693754,
      "perigee_km": 35777.35904197844,
      "latitude_deg": -0.08933792523194782,
      "longitude_deg": -111.876532801667,
      "height_km": 35777.539961630464,
      "semi_major_axis_km": 42164.498162336095,
      "eccentricity": 0.0002135,
      "inclination_deg": 0.1386,
      "raan_deg": 84.3838,
      "arg_perigee_deg": 255.2286,
      "mean_anomaly_deg": 337.7452,
      "mean_motion_rev_day": 1.00272619
    },
    {
      "epoch": "2026-04-08T13:48:03.437856Z",
      "apogee_km": 35795.25198957288,
      "perigee_km": 35777.4535151586,
      "latitude_deg": -0.045221778246640684,
      "longitude_deg": -111.88286958499961,
      "height_km": 35779.88053117357,
      "semi_major_axis_km": 42164.48975236574,
      "eccentricity": 0.00021106,
      "inclination_deg": 0.1407,
      "raan_deg": 84.4244,
      "arg_perigee_deg": 255.2422,
      "mean_anomaly_deg": 312.315,
      "mean_motion_rev_day": 1.00272649
    },
    {
      "epoch": "2026-04-09T15:28:16.191840Z",
      "apogee_km": 35795.10834356225,
      "perigee_km": 35777.60164648592,
      "latitude_deg": -0.09598024576617527,
      "longitude_deg": -111.87151352018412,
      "height_km": 35777.74056864733,
      "semi_major_axis_km": 42164.49199502409,
      "eccentricity": 0.0002076,
      "inclination_deg": 0.1432,
      "raan_deg": 84.4687,
      "arg_perigee_deg": 255.5011,
      "mean_anomaly_deg": 338.1221,
      "mean_motion_rev_day": 1.00272641
    },
    {
      "epoch": "2026-04-10T00:01:44.421312Z",
      "apogee_km": 35795.004616791564,
      "perigee_km": 35777.707055250525,
      "latitude_deg": -0.01019369475321552,
      "longitude_deg": -111.83939118756695,
      "height_km": 35788.300525101076,
      "semi_major_axis_km": 42164.49283602105,
      "eccentricity": 0.00020512,
      "inclination_deg": 0.1441,
      "raan_deg": 84.4716,
      "arg_perigee_deg": 255.6753,
      "mean_anomaly_deg": 106.6649,
      "mean_motion_rev_day": 1.00272638
    }
  ]
}